[{"OBJECT_NAME":"ONEWEB-0641","OBJECT_ID":"2023-029K","EPOCH":"2025-09-06T05:52:39.869760","MEAN_MOTION":13.19726267,"ECCENTRICITY":0.00015271,"INCLINATION":87.9288,"RA_OF_ASC_NODE":1.4153,"ARG_OF_PERICENTER":98.8724,"MEAN_ANOMALY":261.2582,"EPHEMERIS_TYPE":0,"CLASSIFICATION_TYPE":"U","NORAD_CAT_ID":55805,"ELEMENT_SET_NO":999,"REV_AT_EPOCH":12146,"BSTAR":6.8815266e-5,"MEAN_MOTION_DOT":4.0e-7,"MEAN_MOTION_DDOT":0},{"OBJECT_NAME":"ONEWEB-0642","OBJECT_ID":"2023-029L","EPOCH":"2025-09-06T05:45:50.904000","MEAN_MOTION":13.19724454,"ECCENTRICITY":8.552e-5,"INCLINATION":87.9275,"RA_OF_ASC_NODE":1.4511,"ARG_OF_PERICENTER":102.7218,"MEAN_ANOMALY":257.401,"EPHEMERIS_TYPE":0,"CLASSIFICATION_TYPE":"U","NORAD_CAT_ID":55806,"ELEMENT_SET_NO":999,"REV_AT_EPOCH":12145,"BSTAR":4.177655e-6,"MEAN_MOTION_DOT":1.5e-7,"MEAN_MOTION_DDOT":0},{"OBJECT_NAME":"ONEWEB-0643","OBJECT_ID":"2023-029M","EPOCH":"2025-09-06T05:23:38.762880","MEAN_MOTION":13.14504616,"ECCENTRICITY":0.00012305,"INCLINATION":87.9094,"RA_OF_ASC_NODE":346.2701,"ARG_OF_PERICENTER":117.6537,"MEAN_ANOMALY":242.4717,"EPHEMERIS_TYPE":0,"CLASSIFICATION_TYPE":"U","NORAD_CAT_ID":55807,"ELEMENT_SET_NO":999,"REV_AT_EPOCH":12208,"BSTAR":-0.00034779768,"MEAN_MOTION_DOT":-1.16e-6,"MEAN_MOTION_DDOT":0},{"OBJECT_NAME":"ONEWEB-0644","OBJECT_ID":"2023-029N","EPOCH":"2025-09-06T05:39:01.830240","MEAN_MOTION":13.19723455,"ECCENTRICITY":0.00012371,"INCLINATION":87.928,"RA_OF_ASC_NODE":1.4593,"ARG_OF_PERICENTER":100.2673,"MEAN_ANOMALY":259.8599,"EPHEMERIS_TYPE":0,"CLASSIFICATION_TYPE":"U","NORAD_CAT_ID":55808,"ELEMENT_SET_NO":999,"REV_AT_EPOCH":12145,"BSTAR":-3.0028544e-5,"MEAN_MOTION_DOT":1.0e-8,"MEAN_MOTION_DDOT":0},{"OBJECT_NAME":"ONEWEB-0645","OBJECT_ID":"2023-029P","EPOCH":"2025-09-06T07:22:31.765440","MEAN_MOTION":13.19726345,"ECCENTRICITY":0.00016049,"INCLINATION":87.927,"RA_OF_ASC_NODE":1.4316,"ARG_OF_PERICENTER":88.5014,"MEAN_ANOMALY":271.6302,"EPHEMERIS_TYPE":0,"CLASSIFICATION_TYPE":"U","NORAD_CAT_ID":55809,"ELEMENT_SET_NO":999,"REV_AT_EPOCH":12146,"BSTAR":9.0219258e-5,"MEAN_MOTION_DOT":4.9e-7,"MEAN_MOTION_DDOT":0},{"OBJECT_NAME":"ONEWEB-0646","OBJECT_ID":"2023-029Q","EPOCH":"2025-09-06T06:31:28.306560","MEAN_MOTION":13.19255987,"ECCENTRICITY":0.0001545,"INCLINATION":87.9274,"RA_OF_ASC_NODE":1.4353,"ARG_OF_PERICENTER":102.8485,"MEAN_ANOMALY":257.2821,"EPHEMERIS_TYPE":0,"CLASSIFICATION_TYPE":"U","NORAD_CAT_ID":55810,"ELEMENT_SET_NO":999,"REV_AT_EPOCH":12144,"BSTAR":0.00033262057,"MEAN_MOTION_DOT":1.45e-6,"MEAN_MOTION_DDOT":0},{"OBJECT_NAME":"ONEWEB-0648","OBJECT_ID":"2023-029R","EPOCH":"2025-09-06T06:27:36.669888","MEAN_MOTION":13.1449548,"ECCENTRICITY":0.00011332,"INCLINATION":87.9087,"RA_OF_ASC_NODE":346.2328,"ARG_OF_PERICENTER":76.4232,"MEAN_ANOMALY":283.7024,"EPHEMERIS_TYPE":0,"CLASSIFICATION_TYPE":"U","NORAD_CAT_ID":55811,"ELEMENT_SET_NO":999,"REV_AT_EPOCH":12209,"BSTAR":0.0045974071,"MEAN_MOTION_DOT":1.717e-5,"MEAN_MOTION_DDOT":0},{"OBJECT_NAME":"ONEWEB-0649","OBJECT_ID":"2023-029S","EPOCH":"2025-09-06T07:12:17.555616","MEAN_MOTION":13.19725005,"ECCENTRICITY":0.00013453,"INCLINATION":87.9281,"RA_OF_ASC_NODE":1.4218,"ARG_OF_PERICENTER":90.2423,"MEAN_ANOMALY":269.8863,"EPHEMERIS_TYPE":0,"CLASSIFICATION_TYPE":"U","NORAD_CAT_ID":55812,"ELEMENT_SET_NO":999,"REV_AT_EPOCH":12148,"BSTAR":4.5937179e-5,"MEAN_MOTION_DOT":3.1e-7,"MEAN_MOTION_DDOT":0},{"OBJECT_NAME":"ONEWEB-0650","OBJECT_ID":"2023-029T","EPOCH":"2025-09-06T07:05:28.161312","MEAN_MOTION":13.19726433,"ECCENTRICITY":0.00015635,"INCLINATION":87.928,"RA_OF_ASC_NODE":1.4335,"ARG_OF_PERICENTER":99.8706,"MEAN_ANOMALY":260.2603,"EPHEMERIS_TYPE":0,"CLASSIFICATION_TYPE":"U","NORAD_CAT_ID":55813,"ELEMENT_SET_NO":999,"REV_AT_EPOCH":12145,"BSTAR":-7.2705453e-5,"MEAN_MOTION_DOT":-1.6e-7,"MEAN_MOTION_DDOT":0},{"OBJECT_NAME":"ONEWEB-0652","OBJECT_ID":"2023-029U","EPOCH":"2025-09-06T06:00:12.204000","MEAN_MOTION":13.14502821,"ECCENTRICITY":0.00019465,"INCLINATION":87.9093,"RA_OF_ASC_NODE":346.2509,"ARG_OF_PERICENTER":100.8424,"MEAN_ANOMALY":259.2924,"EPHEMERIS_TYPE":0,"CLASSIFICATION_TYPE":"U","NORAD_CAT_ID":55814,"ELEMENT_SET_NO":999,"REV_AT_EPOCH":12206,"BSTAR":0.00046277243,"MEAN_MOTION_DOT":1.84e-6,"MEAN_MOTION_DDOT":0},{"OBJECT_NAME":"ONEWEB-0653","OBJECT_ID":"2023-029V","EPOCH":"2025-09-06T05:37:21.637344","MEAN_MOTION":13.14504396,"ECCENTRICITY":0.00020006,"INCLINATION":87.9094,"RA_OF_ASC_NODE":346.2434,"ARG_OF_PERICENTER":95.5274,"MEAN_ANOMALY":264.6084,"EPHEMERIS_TYPE":0,"CLASSIFICATION_TYPE":"U","NORAD_CAT_ID":55815,"ELEMENT_SET_NO":999,"REV_AT_EPOCH":12209,"BSTAR":-0.00025742904,"MEAN_MOTION_DOT":-8.3e-7,"MEAN_MOTION_DDOT":0},{"OBJECT_NAME":"ONEWEB-0654","OBJECT_ID":"2023-029W","EPOCH":"2025-09-06T05:30:29.265696","MEAN_MOTION":13.14503019,"ECCENTRICITY":0.0002229,"INCLINATION":87.9093,"RA_OF_ASC_NODE":346.2424,"ARG_OF_PERICENTER":100.7865,"MEAN_ANOMALY":259.3516,"EPHEMERIS_TYPE":0,"CLASSIFICATION_TYPE":"U","NORAD_CAT_ID":55816,"ELEMENT_SET_NO":999,"REV_AT_EPOCH":12211,"BSTAR":-0.0009523592,"MEAN_MOTION_DOT":-3.4e-6,"MEAN_MOTION_DDOT":0},{"OBJECT_NAME":"ONEWEB-0656","OBJECT_ID":"2023-029X","EPOCH":"2025-09-06T06:25:23.078208","MEAN_MOTION":13.20772501,"ECCENTRICITY":0.00023585,"INCLINATION":87.9296,"RA_OF_ASC_NODE":331.0197,"ARG_OF_PERICENTER":99.322,"MEAN_ANOMALY":260.8181,"EPHEMERIS_TYPE":0,"CLASSIFICATION_TYPE":"U","NORAD_CAT_ID":55817,"ELEMENT_SET_NO":999,"REV_AT_EPOCH":12367,"BSTAR":0.00020522515,"MEAN_MOTION_DOT":9.6e-7,"MEAN_MOTION_DDOT":0},{"OBJECT_NAME":"ONEWEB-0657","OBJECT_ID":"2023-029Y","EPOCH":"2025-09-06T06:58:39.295776","MEAN_MOTION":13.19726229,"ECCENTRICITY":0.00021991,"INCLINATION":87.928,"RA_OF_ASC_NODE":1.439,"ARG_OF_PERICENTER":118.4641,"MEAN_ANOMALY":241.6714,"EPHEMERIS_TYPE":0,"CLASSIFICATION_TYPE":"U","NORAD_CAT_ID":55818,"ELEMENT_SET_NO":999,"REV_AT_EPOCH":12146,"BSTAR":-6.6490809e-5,"MEAN_MOTION_DOT":-1.4e-7,"MEAN_MOTION_DDOT":0},{"OBJECT_NAME":"ONEWEB-0658","OBJECT_ID":"2023-029Z","EPOCH":"2025-09-06T06:51:49.670784","MEAN_MOTION":13.19725253,"ECCENTRICITY":0.00012825,"INCLINATION":87.9292,"RA_OF_ASC_NODE":1.3768,"ARG_OF_PERICENTER":100.1758,"MEAN_ANOMALY":259.9519,"EPHEMERIS_TYPE":0,"CLASSIFICATION_TYPE":"U","NORAD_CAT_ID":55819,"ELEMENT_SET_NO":999,"REV_AT_EPOCH":12147,"BSTAR":-7.317277e-6,"MEAN_MOTION_DOT":1.0e-7,"MEAN_MOTION_DDOT":0},{"OBJECT_NAME":"ONEWEB-0660","OBJECT_ID":"2023-029AA","EPOCH":"2025-09-06T06:48:08.939520","MEAN_MOTION":13.14503834,"ECCENTRICITY":0.00016827,"INCLINATION":87.9098,"RA_OF_ASC_NODE":346.2039,"ARG_OF_PERICENTER":89.8141,"MEAN_ANOMALY":270.3181,"EPHEMERIS_TYPE":0,"CLASSIFICATION_TYPE":"U","NORAD_CAT_ID":55820,"ELEMENT_SET_NO":999,"REV_AT_EPOCH":12210,"BSTAR":-0.00014059193,"MEAN_MOTION_DOT":-3.9e-7,"MEAN_MOTION_DDOT":0},{"OBJECT_NAME":"ONEWEB-0661","OBJECT_ID":"2023-029AB","EPOCH":"2025-09-06T05:48:47.250720","MEAN_MOTION":13.14502768,"ECCENTRICITY":0.00017857,"INCLINATION":87.9094,"RA_OF_ASC_NODE":346.2843,"ARG_OF_PERICENTER":87.7663,"MEAN_ANOMALY":272.3671,"EPHEMERIS_TYPE":0,"CLASSIFICATION_TYPE":"U","NORAD_CAT_ID":55821,"ELEMENT_SET_NO":999,"REV_AT_EPOCH":12208,"BSTAR":4.6395298e-5,"MEAN_MOTION_DOT":3.0e-7,"MEAN_MOTION_DDOT":0}]
