ONEWEB-0641             
1 55805U 23029K   25249.24490590  .00000040  00000+0  68815-4 0  9999
2 55805  87.9288   1.4153 0001527  98.8724 261.2582 13.19726267121468
ONEWEB-0642             
1 55806U 23029L   25249.24017250  .00000015  00000+0  41777-5 0  9999
2 55806  87.9275   1.4511 0000855 102.7218 257.4010 13.19724454121457
ONEWEB-0643             
1 55807U 23029M   25249.22475420 -.00000116  00000+0 -34780-3 0  9993
2 55807  87.9094 346.2701 0001230 117.6537 242.4717 13.14504616122084
ONEWEB-0644             
1 55808U 23029N   25249.23543785  .00000001  00000+0 -30029-4 0  9990
2 55808  87.9280   1.4593 0001237 100.2673 259.8599 13.19723455121456
ONEWEB-0645             
1 55809U 23029P   25249.30731210  .00000049  00000+0  90219-4 0  9999
2 55809  87.9270   1.4316 0001604  88.5014 271.6302 13.19726345121460
ONEWEB-0646             
1 55810U 23029Q   25249.27185540  .00000145  00000+0  33262-3 0  9997
2 55810  87.9274   1.4353 0001545 102.8485 257.2821 13.19255987121446
ONEWEB-0648             
1 55811U 23029R   25249.26917442  .00001717  00000+0  45974-2 0  9999
2 55811  87.9087 346.2328 0001133  76.4232 283.7024 13.14495480122090
ONEWEB-0649             
1 55812U 23029S   25249.30020319  .00000031  00000+0  45937-4 0  9992
2 55812  87.9281   1.4218 0001345  90.2423 269.8863 13.19725005121488
ONEWEB-0650             
1 55813U 23029T   25249.29546483 -.00000016  00000+0 -72705-4 0  9994
2 55813  87.9280   1.4335 0001563  99.8706 260.2603 13.19726433121459
ONEWEB-0652             
1 55814U 23029U   25249.25014125  .00000184  00000+0  46277-3 0  9992
2 55814  87.9093 346.2509 0001946 100.8424 259.2924 13.14502821122060
ONEWEB-0653             
1 55815U 23029V   25249.23427821 -.00000083  00000+0 -25743-3 0  9997
2 55815  87.9094 346.2434 0002000  95.5274 264.6084 13.14504396122093
ONEWEB-0654             
1 55816U 23029W   25249.22950539 -.00000340  00000+0 -95236-3 0  9994
2 55816  87.9093 346.2424 0002229 100.7865 259.3516 13.14503019122115
ONEWEB-0656             
1 55817U 23029X   25249.26762822  .00000096  00000+0  20523-3 0  9998
2 55817  87.9296 331.0197 0002358  99.3220 260.8181 13.20772501123679
ONEWEB-0657             
1 55818U 23029Y   25249.29073259 -.00000014  00000+0 -66491-4 0  9998
2 55818  87.9280   1.4390 0002199 118.4641 241.6714 13.19726229121467
ONEWEB-0658             
1 55819U 23029Z   25249.28599156  .00000010  00000+0 -73173-5 0  9998
2 55819  87.9292   1.3768 0001282 100.1758 259.9519 13.19725253121470
ONEWEB-0660             
1 55820U 23029AA  25249.28343680 -.00000039  00000+0 -14059-3 0  9997
2 55820  87.9098 346.2039 0001682  89.8141 270.3181 13.14503834122108
ONEWEB-0661             
1 55821U 23029AB  25249.24221355  .00000030  00000+0  46395-4 0  9996
2 55821  87.9094 346.2843 0001785  87.7663 272.3671 13.14502768122086
